STARLINK-35560          
1 66059C 25235B   26111.38798611  .00008969  00000+0  30231-3 0  1116
2 66059  53.1609  46.9414 0001368  73.5739 111.3746 15.30182317    17
STARLINK-35558          
1 66060C 25235C   26111.35673611  .00081750  00000+0  27609-2 0  1110
2 66060  53.1585  47.3763 0001519  82.9006 144.3683 15.30085005    15
STARLINK-35566          
1 66061C 25235D   26111.37479167  .00013656  00000+0  46021-3 0  1113
2 66061  53.1602  46.7939 0001378  82.4671 134.4415 15.30187200    13
STARLINK-35421          
1 66062C 25235E   26111.35812500  .00027015  00000+0  91074-3 0  1116
2 66062  53.1595  47.2297 0001264  73.9421 230.8111 15.30169845    19
STARLINK-35562          
1 66063C 25235F   26111.37479167  .00013142  00000+0  44302-3 0  1115
2 66063  53.1586  47.3791 0001157  89.1040 191.1819 15.30178394    10
STARLINK-35542          
1 66064C 25235G   26111.41715278 -.00025370  00000+0 -85417-3 0  1117
2 66064  53.1591  46.9796 0000768  99.7935 158.5469 15.30238463    16
STARLINK-35375          
1 66065C 25235H   26111.37270833  .00013067  00000+0  44028-3 0  1117
2 66065  53.1585  47.3698 0001297  94.1633 186.2475 15.30195086    16
STARLINK-35179          
1 66066C 25235J   26111.39631944  .00003842  00000+0  12949-3 0  1111
2 66066  53.1587  47.1205 0001068  85.4669  34.8965 15.30186701    15
STARLINK-35401          
1 66067C 25235K   26111.37479167  .00022991  00000+0  77506-3 0  1113
2 66067  53.1600  47.0815 0001294  83.2110 348.3032 15.30172746    18
STARLINK-35422          
1 66068C 25235L   26111.33868056  .00039766  00000+0  13407-2 0  1116
2 66068  53.1611  47.0989 0001250  74.9839 233.1144 15.30161698    19
STARLINK-35279          
1 66069C 25235M   26111.40465278 -.00005619  00000+0 -18943-3 0  1117
2 66069  53.1607  46.7219 0001366  91.6948 254.9221 15.30186062    11
STARLINK-35295          
1 66070C 25235N   26111.41159722 -.00007298  00000+0 -24603-3 0  1119
2 66070  53.1585  47.1372 0001287  76.8083  81.2371 15.30188701    19
STARLINK-35323          
1 66071C 25235P   26111.33312500  .00022525  00000+0  75940-3 0  1114
2 66071  53.1594  46.9168 0001201  83.7048 298.4707 15.30171437    17
STARLINK-35299          
1 66072C 25235Q   26111.38868056  .00014242  00000+0  48011-3 0  1118
2 66072  53.1595  47.0752 0001346  70.6697  48.3125 15.30177649    12
STARLINK-35274          
1 66073C 25235R   26111.37826389  .00008157  00000+0  27497-3 0  1114
2 66073  53.1585  47.3079 0001528  90.6228 237.8832 15.30179740    15
STARLINK-35321          
1 66074C 25235S   26111.35326389  .00029252  00000+0  98617-3 0  1119
2 66074  53.1583  47.3539 0001280  73.0884 152.5279 15.30168482    12
STARLINK-35131          
1 66075C 25235T   26111.36229167  .00025703  00000+0  86670-3 0  1110
2 66075  53.1604  47.1023 0001183  91.3887 288.6867 15.30163320    11
STARLINK-34801          
1 66076C 25235U   26111.38034722  .00011423  00000+0  38490-3 0  1115
2 66076  53.1590  47.1579 0001153  84.7368 325.0335 15.30194477    12
STARLINK-35129          
1 66077C 25235V   26111.40743056 -.00136630  00000+0 -46097-2 0  1117
2 66077  53.1598  46.9624 0001332  77.3941 156.5394 15.30227529    10
STARLINK-35116          
1 66078C 25235W   26111.38868056 -.00001040  00000+0 -35052-4 0  1110
2 66078  53.1610  46.8287 0001291  79.5961 161.5303 15.30184538    18
STARLINK-35402          
1 66079C 25235X   26111.42340278 -.00014881  00000+0 -50165-3 0  1115
2 66079  53.1605  46.5973 0001395  93.1688  14.2410 15.30191817    16
STARLINK-35325          
1 66080C 25235Y   26111.32965278  .00048885  00000+0  16473-2 0  1111
2 66080  53.1611  47.1736 0001102  83.6327 157.2227 15.30173180    16
STARLINK-35403          
1 66081C 25235Z   26111.34215278  .00042205  00000+0  14242-2 0  1114
2 66081  53.1591  46.8385 0001081  82.3846   6.9489 15.30131634    16
STARLINK-35011          
1 66082C 25235AA  26111.40326389 -.00001231  00000+0 -41515-4 0  1119
2 66082  53.1597  46.6226 0001261  89.6848 301.6253 15.30182597    15
STARLINK-35291          
1 66083C 25235AB  26111.33729167  .00045647  00000+0  15387-2 0  1116
2 66083  53.1584  47.5145 0001301  77.9056  13.1486 15.30164505    10
STARLINK-35379          
1 66084C 25235AC  26111.35048611  .00030776  00000+0  10371-2 0  1112
2 66084  53.1588  47.3139 0001279  87.4040 146.1546 15.30179584    16
STARLINK-35370          
1 66085C 25235AD  26111.37062500  .00017421  00000+0  58693-3 0  1110
2 66085  53.1583  47.2890 0001240  84.6710 224.9776 15.30194269    13
STARLINK-35596          
1 66086C 25236A   26111.40326389  .00036590  00000+0  12333-2 0  1112
2 66086  53.1596 265.7884 0001203  92.8890 128.8812 15.30170065    18
STARLINK-35563          
1 66087C 25236B   26111.33729167  .00026750  00000+0  90205-3 0  1118
2 66087  53.1576 265.7375 0001049  97.9419 300.5442 15.30161637    16
STARLINK-35461          
1 66088C 25236C   26111.38104167  .00035421  00000+0  11940-2 0  1114
2 66088  53.1569 265.3609 0001069  95.2465 271.6056 15.30168554    13
STARLINK-35571          
1 66089C 25236D   26111.41229167  .00032010  00000+0  10779-2 0  1117
2 66089  53.1570 265.3204 0001113 101.0202  25.6620 15.30203538    18
STARLINK-35570          
1 66090C 25236E   26111.40534722  .00025891  00000+0  87298-3 0  1114
2 66090  53.1579 265.1784 0001239  90.4688  85.2677 15.30165615    15
STARLINK-35532          
1 66091C 25236F   26111.35604167  .00035168  00000+0  11854-2 0  1112
2 66091  53.1589 265.3378 0001221  97.4603 201.3943 15.30172426    18
STARLINK-35527          
1 66092C 25236G   26111.32201389  .00006414  00000+0  21624-3 0  1118
2 66092  53.1597 266.1305 0001085  97.9540  53.4434 15.30179184    19
STARLINK-35500          
1 66093C 25236H   26111.34840278  .00003183  00000+0  10731-3 0  1114
2 66093  53.1574 265.6501 0001222  93.9301  23.2371 15.30179221    18
STARLINK-35528          
1 66094C 25236J   26111.40673611  .00023683  00000+0  79837-3 0  1116
2 66094  53.1569 265.3093 0001248  89.8450  23.7416 15.30172539    13
STARLINK-35559          
1 66095C 25236K   26111.40534722  .00024913  00000+0  83989-3 0  1116
2 66095  53.1569 265.2812 0001281  92.5576  30.8236 15.30169844    13
STARLINK-34386          
1 66096C 25236L   26111.40395833  .00021252  00000+0  71648-3 0  1117
2 66096  53.1574 265.2182 0001277  94.1760  56.4518 15.30170804    13
STARLINK-35613          
1 66097C 25236M   26111.41020833  .00030529  00000+0  10295-2 0  1111
2 66097  53.1566 265.2812 0001026  89.9200  48.6694 15.30157625    12
STARLINK-34206          
1 66098C 25236N   26111.39770833  .00043027  00000+0  14499-2 0  1118
2 66098  53.1601 265.7657 0001219  93.3369 121.0456 15.30176267    19
STARLINK-34460          
1 66099C 25236P   26111.34145833  .00028573  00000+0  96321-3 0  1114
2 66099  53.1584 265.4389 0001081  97.9717 103.0575 15.30171516    17
STARLINK-35609          
1 66100C 25236Q   26111.37062500  .00029582  00000+0  99722-3 0  1118
2 66100  53.1603 265.8566 0001125  91.1634 351.4369 15.30170494    10
STARLINK-35595          
1 66101C 25236R   26111.36020833  .00033223  00000+0  11200-2 0  1112
2 66101  53.1601 265.8701 0001208  98.9688 303.6671 15.30168548    18
STARLINK-35599          
1 66102C 25236S   26111.34423611  .00033627  00000+0  11336-2 0  1110
2 66102  53.1602 265.9094 0000935 101.2652 230.7863 15.30168773    14
STARLINK-35622          
1 66103C 25236T   26111.36020833 -.00065433  00000+0 -22026-2 0  1112
2 66103  53.1598 265.7654 0001331  90.8392   4.1579 15.30263884    10
STARLINK-35452          
1 66104C 25236U   26111.37548611  .00046453  00000+0  15648-2 0  1114
2 66104  53.1600 265.7296 0001089  94.6298  67.0475 15.30185450    19
STARLINK-35561          
1 66105C 25236V   26111.40951389  .00012361  00000+0  41667-3 0  1111
2 66105  53.1593 265.5015 0001232 101.7995 282.3959 15.30181545    12
STARLINK-35584          
1 66106C 25236W   26111.40256944  .00017313  00000+0  58358-3 0  1114
2 66106  53.1587 265.4996 0001214 101.9603 261.4084 15.30179507    13
STARLINK-35593          
1 66107C 25236X   26111.40604167  .00033714  00000+0  11363-2 0  1116
2 66107  53.1582 265.4491 0001181  90.7216 309.2234 15.30173138    19
STARLINK-35590          
1 66108C 25236Y   26111.34770833  .00034647  00000+0  11678-2 0  1119
2 66108  53.1575 265.6731 0001230 102.8408 358.8464 15.30172627    11
STARLINK-35545          
1 66109C 25236Z   26111.41784722  .00024508  00000+0  82638-3 0  1110
2 66109  53.1580 265.3709 0001166  88.1758  28.5042 15.30164844    17
STARLINK-35427          
1 66110C 25236AA  26111.41090278  .00037479  00000+0  12634-2 0  1117
2 66110  53.1595 265.7823 0001280  90.2922 156.1471 15.30166831    12
STARLINK-35574          
1 66111C 25236AB  26111.40812500 -.00109820  00000+0 -36971-2 0  1119
2 66111  53.1596 265.7722 0001299  88.4477 154.3487 15.30283897    15
STARLINK-35531          
1 66112C 25236AC  26111.34076389  .00017301  00000+0  58324-3 0  1117
2 66112  53.1571 265.6703 0001195  93.4031 347.4709 15.30176030    16
STARLINK-35491          
1 66113C 25236AD  26111.33659722  .00020506  00000+0  69127-3 0  1119
2 66113  53.1596 266.0814 0001271  92.3734 127.7769 15.30173931    17
STARLINK-35496          
1 66114C 25237A   26111.35951389 -.00014855  00000+0 -50070-3 0  1116
2 66114  53.1577 201.4132 0001171  90.4334 271.8166 15.30197130    16
STARLINK-35428          
1 66115C 25237B   26111.36854167 -.00018891  00000+0 -63651-3 0  1117
2 66115  53.1588 201.5449 0001232  92.7112 232.0433 15.30209995    17
STARLINK-35573          
1 66116C 25237C   26111.40256944 -.00030350  00000+0 -10230-2 0  1110
2 66116  53.1565 201.0622 0001283  95.0682 220.1115 15.30204479    12
STARLINK-35572          
1 66117C 25237D   26111.39493056 -.00030934  00000+0 -10425-2 0  1110
2 66117  53.1584 201.3525 0001455  87.5298  57.5731 15.30209435    12
